{
  "type": "FeatureCollection",
  "features": [
    {
      "type": "Feature",
      "properties": {
        "norad_id": 66429,
        "name": "STARLINK-35533",
        "group": "last-30-days",
        "lat": 18.3823886763083,
        "lon": 88.96447571286697,
        "alt_km": 441.3782749198908,
        "timestamp": "2025-12-09T05:43:19.508256+00:00",
        "meta_object_name": "STARLINK-35533",
        "meta_object_id": "2025-259H",
        "meta_epoch": "2025-12-08T20:00:01.999008",
        "meta_mean_motion": 15.40657033,
        "meta_eccentricity": 0.0001474,
        "meta_inclination": 43.001,
        "meta_ra_of_asc_node": 70.4074,
        "meta_arg_of_pericenter": 276.7134,
        "meta_mean_anomaly": 21.5456,
        "meta_ephemeris_type": 0,
        "meta_classification_type": "U",
        "meta_norad_cat_id": 66429,
        "meta_element_set_no": 999,
        "meta_rev_at_epoch": 565,
        "meta_bstar": 0.0020358,
        "meta_mean_motion_dot": 0.00085574,
        "meta_mean_motion_ddot": 0,
        "tle_line1": "1 66429U 25259H   25342.83335647  .00085574  00000+0  20358-2 0  9993",
        "tle_line2": "2 66429  43.0010  70.4074 0001474 276.7134  21.5456 15.40657033  5658"
      },
      "geometry": {
        "type": "Point",
        "coordinates": [
          88.96447571286697,
          18.3823886763083
        ]
      }
    },
    {
      "type": "Feature",
      "properties": {
        "norad_id": 66430,
        "name": "STARLINK-35470",
        "group": "last-30-days",
        "lat": 26.0034598150952,
        "lon": 99.60730662276102,
        "alt_km": 440.5816545158159,
        "timestamp": "2025-12-09T05:43:19.508268+00:00",
        "meta_object_name": "STARLINK-35470",
        "meta_object_id": "2025-259J",
        "meta_epoch": "2025-12-08T20:00:01.999008",
        "meta_mean_motion": 15.40816381,
        "meta_eccentricity": 0.0001702,
        "meta_inclination": 43.0008,
        "meta_ra_of_asc_node": 70.3772,
        "meta_arg_of_pericenter": 275.5277,
        "meta_mean_anomaly": 35.1038,
        "meta_ephemeris_type": 0,
        "meta_classification_type": "U",
        "meta_norad_cat_id": 66430,
        "meta_element_set_no": 999,
        "meta_rev_at_epoch": 565,
        "meta_bstar": -0.0039394,
        "meta_mean_motion_dot": -0.00162046,
        "meta_mean_motion_ddot": 0,
        "tle_line1": "1 66430U 25259J   25342.83335647 -.00162046  00000+0 -39394-2 0  9997",
        "tle_line2": "2 66430  43.0008  70.3772 0001702 275.5277  35.1038 15.40816381  5650"
      },
      "geometry": {
        "type": "Point",
        "coordinates": [
          99.60730662276102,
          26.0034598150952
        ]
      }
    },
    {
      "type": "Feature",
      "properties": {
        "norad_id": 66431,
        "name": "STARLINK-35439",
        "group": "last-30-days",
        "lat": 32.67747421823383,
        "lon": 111.50808463155475,
        "alt_km": 439.18960479303496,
        "timestamp": "2025-12-09T05:43:19.508279+00:00",
        "meta_object_name": "STARLINK-35439",
        "meta_object_id": "2025-259K",
        "meta_epoch": "2025-12-08T20:00:01.999008",
        "meta_mean_motion": 15.40685902,
        "meta_eccentricity": 0.0001147,
        "meta_inclination": 43.0009,
        "meta_ra_of_asc_node": 70.3456,
        "meta_arg_of_pericenter": 287.0242,
        "meta_mean_anomaly": 36.0097,
        "meta_ephemeris_type": 0,
        "meta_classification_type": "U",
        "meta_norad_cat_id": 66431,
        "meta_element_set_no": 999,
        "meta_rev_at_epoch": 565,
        "meta_bstar": 0.0011581,
        "meta_mean_motion_dot": 0.00048357,
        "meta_mean_motion_ddot": 0,
        "tle_line1": "1 66431U 25259K   25342.83335647  .00048357  00000+0  11581-2 0  9992",
        "tle_line2": "2 66431  43.0009  70.3456 0001147 287.0242  36.0097 15.40685902  5652"
      },
      "geometry": {
        "type": "Point",
        "coordinates": [
          111.50808463155475,
          32.67747421823383
        ]
      }
    },
    {
      "type": "Feature",
      "properties": {
        "norad_id": 66432,
        "name": "STARLINK-35446",
        "group": "last-30-days",
        "lat": 38.12526595031784,
        "lon": 125.35199379786232,
        "alt_km": 438.56081279067894,
        "timestamp": "2025-12-09T05:43:19.508289+00:00",
        "meta_object_name": "STARLINK-35446",
        "meta_object_id": "2025-259L",
        "meta_epoch": "2025-12-08T20:00:01.999008",
        "meta_mean_motion": 15.40661572,
        "meta_eccentricity": 0.0001115,
        "meta_inclination": 43.0006,
        "meta_ra_of_asc_node": 70.3148,
        "meta_arg_of_pericenter": 281.4497,
        "meta_mean_anomaly": 54.143,
        "meta_ephemeris_type": 0,
        "meta_classification_type": "U",
        "meta_norad_cat_id": 66432,
        "meta_element_set_no": 999,
        "meta_rev_at_epoch": 565,
        "meta_bstar": 0.0011363,
        "meta_mean_motion_dot": 0.00047397,
        "meta_mean_motion_ddot": 0,
        "tle_line1": "1 66432U 25259L   25342.83335647  .00047397  00000+0  11363-2 0  9994",
        "tle_line2": "2 66432  43.0006  70.3148 0001115 281.4497  54.1430 15.40661572  5652"
      },
      "geometry": {
        "type": "Point",
        "coordinates": [
          125.35199379786232,
          38.12526595031784
        ]
      }
    },
    {
      "type": "Feature",
      "properties": {
        "norad_id": 66433,
        "name": "STARLINK-35457",
        "group": "last-30-days",
        "lat": 41.69563847553983,
        "lon": 140.88306402984264,
        "alt_km": 438.28860604892907,
        "timestamp": "2025-12-09T05:43:19.508300+00:00",
        "meta_object_name": "STARLINK-35457",
        "meta_object_id": "2025-259M",
        "meta_epoch": "2025-12-08T20:00:01.999008",
        "meta_mean_motion": 15.40750242,
        "meta_eccentricity": 0.0001232,
        "meta_inclination": 43.0006,
        "meta_ra_of_asc_node": 70.2859,
        "meta_arg_of_pericenter": 260.2794,
        "meta_mean_anomaly": 87.6843,
        "meta_ephemeris_type": 0,
        "meta_classification_type": "U",
        "meta_norad_cat_id": 66433,
        "meta_element_set_no": 999,
        "meta_rev_at_epoch": 565,
        "meta_bstar": -0.0018113,
        "meta_mean_motion_dot": -0.00075347,
        "meta_mean_motion_ddot": 0,
        "tle_line1": "1 66433U 25259M   25342.83335647 -.00075347  00000+0 -18113-2 0  9993",
        "tle_line2": "2 66433  43.0006  70.2859 0001232 260.2794  87.6843 15.40750242  5658"
      },
      "geometry": {
        "type": "Point",
        "coordinates": [
          140.88306402984264,
          41.69563847553983
        ]
      }
    },
    {
      "type": "Feature",
      "properties": {
        "norad_id": 66434,
        "name": "STARLINK-35389",
        "group": "last-30-days",
        "lat": 42.9797002096091,
        "lon": 157.69015540776437,
        "alt_km": 437.99314256963316,
        "timestamp": "2025-12-09T05:43:19.508311+00:00",
        "meta_object_name": "STARLINK-35389",
        "meta_object_id": "2025-259N",
        "meta_epoch": "2025-12-08T20:00:01.999008",
        "meta_mean_motion": 15.40722239,
        "meta_eccentricity": 0.0001017,
        "meta_inclination": 43.0002,
        "meta_ra_of_asc_node": 70.2548,
        "meta_arg_of_pericenter": 284.9839,
        "meta_mean_anomaly": 75.4913,
        "meta_ephemeris_type": 0,
        "meta_classification_type": "U",
        "meta_norad_cat_id": 66434,
        "meta_element_set_no": 999,
        "meta_rev_at_epoch": 565,
        "meta_bstar": -0.0017576,
        "meta_mean_motion_dot": -0.00073075,
        "meta_mean_motion_ddot": 0,
        "tle_line1": "1 66434U 25259N   25342.83335647 -.00073075  00000+0 -17576-2 0  9992",
        "tle_line2": "2 66434  43.0002  70.2548 0001017 284.9839  75.4913 15.40722239  5652"
      },
      "geometry": {
        "type": "Point",
        "coordinates": [
          157.69015540776437,
          42.9797002096091
        ]
      }
    },
    {
      "type": "Feature",
      "properties": {
        "norad_id": 66435,
        "name": "STARLINK-35502",
        "group": "last-30-days",
        "lat": 41.767797204837265,
        "lon": 174.47722103972453,
        "alt_km": 438.31214507179357,
        "timestamp": "2025-12-09T05:43:19.508321+00:00",
        "meta_object_name": "STARLINK-35502",
        "meta_object_id": "2025-259P",
        "meta_epoch": "2025-12-08T20:00:01.999008",
        "meta_mean_motion": 15.40656302,
        "meta_eccentricity": 0.0001317,
        "meta_inclination": 43.0004,
        "meta_ra_of_asc_node": 70.2255,
        "meta_arg_of_pericenter": 291.3366,
        "meta_mean_anomaly": 81.6113,
        "meta_ephemeris_type": 0,
        "meta_classification_type": "U",
        "meta_norad_cat_id": 66435,
        "meta_element_set_no": 999,
        "meta_rev_at_epoch": 565,
        "meta_bstar": 0.0010118,
        "meta_mean_motion_dot": 0.00042132,
        "meta_mean_motion_ddot": 0,
        "tle_line1": "1 66435U 25259P   25342.83335647  .00042132  00000+0  10118-2 0  9996",
        "tle_line2": "2 66435  43.0004  70.2255 0001317 291.3366  81.6113 15.40656302  5658"
      },
      "geometry": {
        "type": "Point",
        "coordinates": [
          174.47722103972453,
          41.767797204837265
        ]
      }
    }
  ]
}